[{"OBJECT_NAME":"OBJECT AD","OBJECT_ID":"2023-085AD","EPOCH":"2026-03-09T21:41:29.115744","MEAN_MOTION":15.31779154,"ECCENTRICITY":0.00101154,"INCLINATION":97.4841,"RA_OF_ASC_NODE":180.2223,"ARG_OF_PERICENTER":77.5993,"MEAN_ANOMALY":282.638,"EPHEMERIS_TYPE":0,"CLASSIFICATION_TYPE":"U","NORAD_CAT_ID":57031,"ELEMENT_SET_NO":999,"REV_AT_EPOCH":15156,"BSTAR":0.00068352515,"MEAN_MOTION_DOT":0.00020961,"MEAN_MOTION_DDOT":0},{"OBJECT_NAME":"STARLINK-33999","OBJECT_ID":"2025-093X","EPOCH":"2026-03-09T08:42:12.212640","MEAN_MOTION":15.27611111,"ECCENTRICITY":0.00033444,"INCLINATION":43.0059,"RA_OF_ASC_NODE":79.5866,"ARG_OF_PERICENTER":295.8135,"MEAN_ANOMALY":64.2372,"EPHEMERIS_TYPE":0,"CLASSIFICATION_TYPE":"U","NORAD_CAT_ID":63857,"ELEMENT_SET_NO":999,"REV_AT_EPOCH":4792,"BSTAR":0.00096055704,"MEAN_MOTION_DOT":0.00026292,"MEAN_MOTION_DDOT":0}]
